{
  "type": "FeatureCollection",
  "name": "Bhuvan_TamilNadu_Hazard_Zones",
  "crs": {
    "type": "name",
    "properties": {
      "name": "urn:ogc:def:crs:OGC:1.3:CRS84"
    }
  },
  "features": [
    {
      "type": "Feature",
      "properties": {
        "zone_id": "TN-FL-01",
        "hazard_level": "High",
        "district": "Chennai",
        "vulnerability_index": 0.85
      },
      "geometry": {
        "type": "Point",
        "coordinates": [
          80.2707,
          13.0827
        ]
      }
    },
    {
      "type": "Feature",
      "properties": {
        "zone_id": "TN-FL-02",
        "hazard_level": "Very High",
        "district": "Cuddalore",
        "vulnerability_index": 0.92
      },
      "geometry": {
        "type": "Point",
        "coordinates": [
          79.7714,
          11.748
        ]
      }
    },
    {
      "type": "Feature",
      "properties": {
        "zone_id": "TN-FL-03",
        "hazard_level": "Very High",
        "district": "Nagapattinam",
        "vulnerability_index": 0.94
      },
      "geometry": {
        "type": "Point",
        "coordinates": [
          79.8424,
          10.7656
        ]
      }
    },
    {
      "type": "Feature",
      "properties": {
        "zone_id": "TN-LS-01",
        "hazard_level": "Moderate",
        "district": "Nilgiris",
        "vulnerability_index": 0.78
      },
      "geometry": {
        "type": "Point",
        "coordinates": [
          76.695,
          11.4102
        ]
      }
    }
  ]
}